STARLINK-36926          
1 67999U 26039P   26081.83335648 -.00125121  00000+0 -21566-2 0  9992
2 67999  43.0000 335.7819 0001272 259.7775  10.1952 15.50639092  4999
STARLINK-36931          
1 68000U 26039Q   26081.83335648 -.00135954  00000+0 -23468-2 0  9994
2 68000  42.9996 335.5004 0001968 254.7958 129.2028 15.50639189  4992
STARLINK-36903          
1 68001U 26039R   26081.83335648 -.01061623  00000+0 -19669-1 0  9994
2 68001  42.9998 335.7693 0002130 242.8672  32.4576 15.50950466  4991
STARLINK-36898          
1 68002U 26039S   26081.83335648 -.01963629  00000+0 -38032-1 0  9997
2 68002  42.9998 335.5428 0001861 257.6452 108.8150 15.50098484  4995
STARLINK-36862          
1 68003U 26039T   26081.83335648 -.01946352  00000+0 -39620-1 0  9996
2 68003  42.9998 335.6676 0001346 254.9296  60.9875 15.48678278  4990
STARLINK-36888          
1 68004U 26039U   26081.83335648 -.01979610  00000+0 -39111-1 0  9995
2 68004  42.9999 335.7192 0001197 253.3330  41.9959 15.49575603  4993
STARLINK-36910          
1 68005U 26039V   26081.83335648 -.01991199  00000+0 -39456-1 0  9994
2 68005  42.9996 335.4553 0001995 269.8820 132.2879 15.49504625  4992
STARLINK-36889          
1 68006U 26039W   26081.83335648  .00056342  00000+0  96034-3 0  9991
2 68006  42.9999 335.7837 0001125 265.2642   3.4912 15.50548668  4995
STARLINK-36592          
1 68007U 26039X   26081.83335648 -.00074145  00000+0 -12683-2 0  9992
2 68007  42.9998 335.4798 0001558 256.8496 134.7600 15.50617057  4992
STARLINK-36911          
1 68008U 26039Y   26081.83335648 -.00114724  00000+0 -19755-2 0  9998
2 68008  43.0001 335.5694 0001402 261.5337  93.7082 15.50621844  4998
STARLINK-36956          
1 68009U 26039Z   26081.83335648 -.00052773  00000+0 -89853-3 0  9991
2 68009  43.0002 335.6365 0002000 249.4314  78.8494 15.50616645  4995
STARLINK-36953          
1 68010U 26039AA  26081.83335648 -.01280866  00000+0 -23518-1 0  9994
2 68010  42.9993 335.1178 0001438 251.2274 286.4860 15.51278161  4993
