CCSDS_OMM_VERS = 2.0
CREATION_DATE  = 
ORIGINATOR     = 

OBJECT_NAME    = STARLINK-36926
OBJECT_ID      = 2026-039P
CENTER_NAME    = EARTH
REF_FRAME      = TEME
TIME_SYSTEM    = UTC
MEAN_ELEMENT_THEORY = SGP/SGP4

EPOCH          = 2026-03-22T20:00:01.999872
MEAN_MOTION    = 15.50639092
ECCENTRICITY   = .00012727
INCLINATION    = 43.0000
RA_OF_ASC_NODE = 335.7819
ARG_OF_PERICENTER = 259.7775
MEAN_ANOMALY   = 10.1952

EPHEMERIS_TYPE = 0
CLASSIFICATION_TYPE = U
NORAD_CAT_ID   = 67999
ELEMENT_SET_NO = 999
REV_AT_EPOCH   = 499
BSTAR          = -.21565511E-2
MEAN_MOTION_DOT = -.125121E-2
MEAN_MOTION_DDOT = 0

CCSDS_OMM_VERS = 2.0
CREATION_DATE  = 
ORIGINATOR     = 

OBJECT_NAME    = STARLINK-36931
OBJECT_ID      = 2026-039Q
CENTER_NAME    = EARTH
REF_FRAME      = TEME
TIME_SYSTEM    = UTC
MEAN_ELEMENT_THEORY = SGP/SGP4

EPOCH          = 2026-03-22T20:00:01.999872
MEAN_MOTION    = 15.50639189
ECCENTRICITY   = .00019687
INCLINATION    = 42.9996
RA_OF_ASC_NODE = 335.5004
ARG_OF_PERICENTER = 254.7958
MEAN_ANOMALY   = 129.2028

EPHEMERIS_TYPE = 0
CLASSIFICATION_TYPE = U
NORAD_CAT_ID   = 68000
ELEMENT_SET_NO = 999
REV_AT_EPOCH   = 499
BSTAR          = -.23468246E-2
MEAN_MOTION_DOT = -.135954E-2
MEAN_MOTION_DDOT = 0

CCSDS_OMM_VERS = 2.0
CREATION_DATE  = 
ORIGINATOR     = 

OBJECT_NAME    = STARLINK-36903
OBJECT_ID      = 2026-039R
CENTER_NAME    = EARTH
REF_FRAME      = TEME
TIME_SYSTEM    = UTC
MEAN_ELEMENT_THEORY = SGP/SGP4

EPOCH          = 2026-03-22T20:00:01.999872
MEAN_MOTION    = 15.50950466
ECCENTRICITY   = .00021306
INCLINATION    = 42.9998
RA_OF_ASC_NODE = 335.7693
ARG_OF_PERICENTER = 242.8672
MEAN_ANOMALY   = 32.4576

EPHEMERIS_TYPE = 0
CLASSIFICATION_TYPE = U
NORAD_CAT_ID   = 68001
ELEMENT_SET_NO = 999
REV_AT_EPOCH   = 499
BSTAR          = -.19669402E-1
MEAN_MOTION_DOT = -.1061623E-1
MEAN_MOTION_DDOT = 0

CCSDS_OMM_VERS = 2.0
CREATION_DATE  = 
ORIGINATOR     = 

OBJECT_NAME    = STARLINK-36898
OBJECT_ID      = 2026-039S
CENTER_NAME    = EARTH
REF_FRAME      = TEME
TIME_SYSTEM    = UTC
MEAN_ELEMENT_THEORY = SGP/SGP4

EPOCH          = 2026-03-22T20:00:01.999872
MEAN_MOTION    = 15.50098484
ECCENTRICITY   = .00018617
INCLINATION    = 42.9998
RA_OF_ASC_NODE = 335.5428
ARG_OF_PERICENTER = 257.6452
MEAN_ANOMALY   = 108.8150

EPHEMERIS_TYPE = 0
CLASSIFICATION_TYPE = U
NORAD_CAT_ID   = 68002
ELEMENT_SET_NO = 999
REV_AT_EPOCH   = 499
BSTAR          = -.3803236E-1
MEAN_MOTION_DOT = -.1963629E-1
MEAN_MOTION_DDOT = 0

CCSDS_OMM_VERS = 2.0
CREATION_DATE  = 
ORIGINATOR     = 

OBJECT_NAME    = STARLINK-36862
OBJECT_ID      = 2026-039T
CENTER_NAME    = EARTH
REF_FRAME      = TEME
TIME_SYSTEM    = UTC
MEAN_ELEMENT_THEORY = SGP/SGP4

EPOCH          = 2026-03-22T20:00:01.999872
MEAN_MOTION    = 15.48678278
ECCENTRICITY   = .0001346
INCLINATION    = 42.9998
RA_OF_ASC_NODE = 335.6676
ARG_OF_PERICENTER = 254.9296
MEAN_ANOMALY   = 60.9875

EPHEMERIS_TYPE = 0
CLASSIFICATION_TYPE = U
NORAD_CAT_ID   = 68003
ELEMENT_SET_NO = 999
REV_AT_EPOCH   = 499
BSTAR          = -.39619749E-1
MEAN_MOTION_DOT = -.1946352E-1
MEAN_MOTION_DDOT = 0

CCSDS_OMM_VERS = 2.0
CREATION_DATE  = 
ORIGINATOR     = 

OBJECT_NAME    = STARLINK-36888
OBJECT_ID      = 2026-039U
CENTER_NAME    = EARTH
REF_FRAME      = TEME
TIME_SYSTEM    = UTC
MEAN_ELEMENT_THEORY = SGP/SGP4

EPOCH          = 2026-03-22T20:00:01.999872
MEAN_MOTION    = 15.49575603
ECCENTRICITY   = .00011977
INCLINATION    = 42.9999
RA_OF_ASC_NODE = 335.7192
ARG_OF_PERICENTER = 253.3330
MEAN_ANOMALY   = 41.9959

EPHEMERIS_TYPE = 0
CLASSIFICATION_TYPE = U
NORAD_CAT_ID   = 68004
ELEMENT_SET_NO = 999
REV_AT_EPOCH   = 499
BSTAR          = -.39110542E-1
MEAN_MOTION_DOT = -.197961E-1
MEAN_MOTION_DDOT = 0

CCSDS_OMM_VERS = 2.0
CREATION_DATE  = 
ORIGINATOR     = 

OBJECT_NAME    = STARLINK-36910
OBJECT_ID      = 2026-039V
CENTER_NAME    = EARTH
REF_FRAME      = TEME
TIME_SYSTEM    = UTC
MEAN_ELEMENT_THEORY = SGP/SGP4

EPOCH          = 2026-03-22T20:00:01.999872
MEAN_MOTION    = 15.49504625
ECCENTRICITY   = .00019957
INCLINATION    = 42.9996
RA_OF_ASC_NODE = 335.4553
ARG_OF_PERICENTER = 269.8820
MEAN_ANOMALY   = 132.2879

EPHEMERIS_TYPE = 0
CLASSIFICATION_TYPE = U
NORAD_CAT_ID   = 68005
ELEMENT_SET_NO = 999
REV_AT_EPOCH   = 499
BSTAR          = -.39456041E-1
MEAN_MOTION_DOT = -.1991199E-1
MEAN_MOTION_DDOT = 0

CCSDS_OMM_VERS = 2.0
CREATION_DATE  = 
ORIGINATOR     = 

OBJECT_NAME    = STARLINK-36889
OBJECT_ID      = 2026-039W
CENTER_NAME    = EARTH
REF_FRAME      = TEME
TIME_SYSTEM    = UTC
MEAN_ELEMENT_THEORY = SGP/SGP4

EPOCH          = 2026-03-22T20:00:01.999872
MEAN_MOTION    = 15.50548668
ECCENTRICITY   = .00011256
INCLINATION    = 42.9999
RA_OF_ASC_NODE = 335.7837
ARG_OF_PERICENTER = 265.2642
MEAN_ANOMALY   = 3.4912

EPHEMERIS_TYPE = 0
CLASSIFICATION_TYPE = U
NORAD_CAT_ID   = 68006
ELEMENT_SET_NO = 999
REV_AT_EPOCH   = 499
BSTAR          = .96034272E-3
MEAN_MOTION_DOT = .56342E-3
MEAN_MOTION_DDOT = 0

CCSDS_OMM_VERS = 2.0
CREATION_DATE  = 
ORIGINATOR     = 

OBJECT_NAME    = STARLINK-36592
OBJECT_ID      = 2026-039X
CENTER_NAME    = EARTH
REF_FRAME      = TEME
TIME_SYSTEM    = UTC
MEAN_ELEMENT_THEORY = SGP/SGP4

EPOCH          = 2026-03-22T20:00:01.999872
MEAN_MOTION    = 15.50617057
ECCENTRICITY   = .00015581
INCLINATION    = 42.9998
RA_OF_ASC_NODE = 335.4798
ARG_OF_PERICENTER = 256.8496
MEAN_ANOMALY   = 134.7600

EPHEMERIS_TYPE = 0
CLASSIFICATION_TYPE = U
NORAD_CAT_ID   = 68007
ELEMENT_SET_NO = 999
REV_AT_EPOCH   = 499
BSTAR          = -.12682663E-2
MEAN_MOTION_DOT = -.74145E-3
MEAN_MOTION_DDOT = 0

CCSDS_OMM_VERS = 2.0
CREATION_DATE  = 
ORIGINATOR     = 

OBJECT_NAME    = STARLINK-36911
OBJECT_ID      = 2026-039Y
CENTER_NAME    = EARTH
REF_FRAME      = TEME
TIME_SYSTEM    = UTC
MEAN_ELEMENT_THEORY = SGP/SGP4

EPOCH          = 2026-03-22T20:00:01.999872
MEAN_MOTION    = 15.50621844
ECCENTRICITY   = .0001402
INCLINATION    = 43.0001
RA_OF_ASC_NODE = 335.5694
ARG_OF_PERICENTER = 261.5337
MEAN_ANOMALY   = 93.7082

EPHEMERIS_TYPE = 0
CLASSIFICATION_TYPE = U
NORAD_CAT_ID   = 68008
ELEMENT_SET_NO = 999
REV_AT_EPOCH   = 499
BSTAR          = -.19754517E-2
MEAN_MOTION_DOT = -.114724E-2
MEAN_MOTION_DDOT = 0

CCSDS_OMM_VERS = 2.0
CREATION_DATE  = 
ORIGINATOR     = 

OBJECT_NAME    = STARLINK-36956
OBJECT_ID      = 2026-039Z
CENTER_NAME    = EARTH
REF_FRAME      = TEME
TIME_SYSTEM    = UTC
MEAN_ELEMENT_THEORY = SGP/SGP4

EPOCH          = 2026-03-22T20:00:01.999872
MEAN_MOTION    = 15.50616645
ECCENTRICITY   = .00020005
INCLINATION    = 43.0002
RA_OF_ASC_NODE = 335.6365
ARG_OF_PERICENTER = 249.4314
MEAN_ANOMALY   = 78.8494

EPHEMERIS_TYPE = 0
CLASSIFICATION_TYPE = U
NORAD_CAT_ID   = 68009
ELEMENT_SET_NO = 999
REV_AT_EPOCH   = 499
BSTAR          = -.89852853E-3
MEAN_MOTION_DOT = -.52773E-3
MEAN_MOTION_DDOT = 0

CCSDS_OMM_VERS = 2.0
CREATION_DATE  = 
ORIGINATOR     = 

OBJECT_NAME    = STARLINK-36953
OBJECT_ID      = 2026-039AA
CENTER_NAME    = EARTH
REF_FRAME      = TEME
TIME_SYSTEM    = UTC
MEAN_ELEMENT_THEORY = SGP/SGP4

EPOCH          = 2026-03-22T20:00:01.999872
MEAN_MOTION    = 15.51278161
ECCENTRICITY   = .00014384
INCLINATION    = 42.9993
RA_OF_ASC_NODE = 335.1178
ARG_OF_PERICENTER = 251.2274
MEAN_ANOMALY   = 286.4860

EPHEMERIS_TYPE = 0
CLASSIFICATION_TYPE = U
NORAD_CAT_ID   = 68010
ELEMENT_SET_NO = 999
REV_AT_EPOCH   = 499
BSTAR          = -.23517694E-1
MEAN_MOTION_DOT = -.1280866E-1
MEAN_MOTION_DDOT = 0

